[{"OBJECT_NAME":"KUIPER-00138","OBJECT_ID":"2025-228T","EPOCH":"2026-03-09T22:48:42.986592","MEAN_MOTION":14.79931547,"ECCENTRICITY":7.135e-5,"INCLINATION":51.9006,"RA_OF_ASC_NODE":341.9402,"ARG_OF_PERICENTER":86.7972,"MEAN_ANOMALY":273.3071,"EPHEMERIS_TYPE":0,"CLASSIFICATION_TYPE":"U","NORAD_CAT_ID":65964,"ELEMENT_SET_NO":999,"REV_AT_EPOCH":2351,"BSTAR":2.8460536e-5,"MEAN_MOTION_DOT":-4.0e-8,"MEAN_MOTION_DDOT":0},{"OBJECT_NAME":"PSLV R\/B","OBJECT_ID":"2014-034F","EPOCH":"2026-03-09T13:14:51.880704","MEAN_MOTION":14.84143321,"ECCENTRICITY":0.00191696,"INCLINATION":98.3003,"RA_OF_ASC_NODE":286.336,"ARG_OF_PERICENTER":298.7666,"MEAN_ANOMALY":61.1621,"EPHEMERIS_TYPE":0,"CLASSIFICATION_TYPE":"U","NORAD_CAT_ID":40058,"ELEMENT_SET_NO":999,"REV_AT_EPOCH":63129,"BSTAR":0.00014545883,"MEAN_MOTION_DOT":1.159e-5,"MEAN_MOTION_DDOT":0}]
